NORAD_CAT_ID,OBJECT_NAME,OBJECT_TYPE,EPOCH,MEAN_MOTION,ECCENTRICITY,INCLINATION,RA_OF_ASC_NODE,ARG_OF_PERICENTER,MEAN_ANOMALY,BSTAR,MEAN_MOTION_DOT,MEAN_MOTION_DDOT,TLE_LINE0,TLE_LINE1,TLE_LINE2,SEMIMAJOR_AXIS,PERIOD,APOGEE,PERIGEE,DECAYED
52107.0,STARLINK-3658,PAYLOAD,2023-04-20 02:01:34,15.08837543,0.0001508,53.2162,133.4234,102.964,257.1521,3.2229e-05,2.25e-06,0.0,0 STARLINK-3658,1 52107U 22029V   23110.08442777  .00000225  00000-0  32229-4 0  9997,2 52107  53.2162 133.4234 0001508 102.9640 257.1521 15.08837543 61578,6917.888,95.438,540.796,538.71,0.0
52107.0,STARLINK-3658,PAYLOAD,2023-04-20 09:58:30,15.08836388,0.0001502,53.2163,131.9361,106.106,254.0098,2.8961e-05,1.73e-06,0.0,0 STARLINK-3658,1 52107U 22029V   23110.41562831  .00000173  00000-0  28961-4 0  9998,2 52107  53.2163 131.9361 0001502 106.1060 254.0098 15.08836388 61626,6917.891,95.438,540.795,538.717,0.0
52107.0,STARLINK-3658,PAYLOAD,2023-04-20 17:55:26,15.08835004,0.0001485,53.2166,130.4498,99.9285,260.1875,1.7687e-05,-6e-08,0.0,0 STARLINK-3658,1 52107U 22029V   23110.74683052 -.00000006  00000-0  17687-4 0  9992,2 52107  53.2166 130.4498 0001485  99.9285 260.1875 15.08835004 61672,6917.896,95.438,540.788,538.733,0.0
52107.0,STARLINK-3658,PAYLOAD,2023-04-21 08:13:54,15.08838126,0.0001326,53.2152,127.7754,103.5503,256.5637,-3.8811e-06,-3.5e-06,0.0,0 STARLINK-3658,1 52107U 22029V   23111.34299051 -.00000350  00000-0 -38811-5 0  9997,2 52107  53.2152 127.7754 0001326 103.5503 256.5637 15.08838126 61763,6917.886,95.438,540.668,538.834,0.0
52107.0,STARLINK-3658,PAYLOAD,2023-04-21 17:46:13,15.08839295,0.000127,53.2154,125.9921,100.8489,259.2646,-1.0042e-06,-3.04e-06,0.0,0 STARLINK-3658,1 52107U 22029V   23111.74043040 -.00000304  00000-0 -10042-5 0  9991,2 52107  53.2154 125.9921 0001270 100.8489 259.2646 15.08839295 61827,6917.883,95.438,540.626,538.869,0.0
52107.0,STARLINK-3658,PAYLOAD,2023-04-22 04:53:54,15.08840048,0.0001171,53.2156,123.9101,100.9596,259.1528,8.3913e-05,1.048e-05,0.0,0 STARLINK-3658,1 52107U 22029V   23112.20410858  .00001048  00000-0  83913-4 0  9998,2 52107  53.2156 123.9101 0001171 100.9596 259.1528 15.08840048 61890,6917.88,95.438,540.555,538.935,0.0
52107.0,STARLINK-3658,PAYLOAD,2023-04-22 17:37:00,15.08840147,0.0001128,53.2159,121.5315,95.4972,264.6149,0.00010204,1.337e-05,0.0,0 STARLINK-3658,1 52107U 22029V   23112.73402815  .00001337  00000-0  10204-3 0  9993,2 52107  53.2159 121.5315 0001128  95.4972 264.6149 15.08840147 61971,6917.88,95.438,540.525,538.965,0.0
52107.0,STARLINK-3658,PAYLOAD,2023-04-23 09:30:51,15.0883969,0.0001101,53.2157,118.5575,92.9181,267.1937,7.1003e-05,8.42e-06,0.0,0 STARLINK-3658,1 52107U 22029V   23113.39643032  .00000842  00000-0  71003-4 0  9999,2 52107  53.2157 118.5575 0001101  92.9181 267.1937 15.08839690 62074,6917.881,95.438,540.508,538.985,0.0
52107.0,STARLINK-3658,PAYLOAD,2023-04-24 09:21:38,15.08848505,0.0001383,53.2159,114.0964,85.255,274.86,8.4737e-05,1.061e-05,0.0,0 STARLINK-3658,1 52107U 22029V   23114.39002600  .00001061  00000-0  84737-4 0  9992,2 52107  53.2159 114.0964 0001383  85.2550 274.8600 15.08848505 62220,6917.854,95.437,540.676,538.763,0.0
52107.0,STARLINK-3658,PAYLOAD,2023-04-25 09:12:25,15.08842304,0.0001076,53.2166,109.6366,91.8651,268.2465,3.156e-05,2.15e-06,0.0,0 STARLINK-3658,1 52107U 22029V   23115.38362740  .00000215  00000-0  31560-4 0  9992,2 52107  53.2166 109.6366 0001076  91.8651 268.2465 15.08842304 62371,6917.873,95.437,540.483,538.994,0.0
52107.0,STARLINK-3658,PAYLOAD,2023-04-26 09:03:12,15.08857763,0.0001022,53.2153,105.1757,90.0883,270.0226,-0.00024956,-4.259e-05,0.0,0 STARLINK-3658,1 52107U 22029V   23116.37722794 -.00004259  00000-0 -24956-3 0  9995,2 52107  53.2153 105.1757 0001022  90.0883 270.0226 15.08857763 62529,6917.826,95.436,540.398,538.984,0.0
52107.0,STARLINK-3658,PAYLOAD,2023-04-27 08:53:59,15.08835098,0.000118,53.2158,100.7145,98.1758,261.9368,6.4834e-05,7.44e-06,0.0,0 STARLINK-3658,1 52107U 22029V   23117.37083197  .00000744  00000-0  64834-4 0  9996,2 52107  53.2158 100.7145 0001180  98.1758 261.9368 15.08835098 62670,6917.895,95.438,540.577,538.944,0.0
52107.0,STARLINK-3658,PAYLOAD,2023-04-28 08:44:46,15.08843709,0.0001164,53.2157,96.2546,94.1353,265.9772,9.8585e-05,1.282e-05,0.0,0 STARLINK-3658,1 52107U 22029V   23118.36442708  .00001282  00000-0  98585-4 0  9991,2 52107  53.2157  96.2546 0001164  94.1353 265.9772 15.08843709 62820,6917.869,95.437,540.539,538.929,0.0
52107.0,STARLINK-3658,PAYLOAD,2023-04-28 15:06:19,15.08832986,0.0001399,53.2165,95.0645,90.4895,269.6258,1.6061e-05,-3.2e-07,0.0,0 STARLINK-3658,1 52107U 22029V   23118.62939766 -.00000032  00000-0  16061-4 0  9997,2 52107  53.2165  95.0645 0001399  90.4895 269.6258 15.08832986 62865,6917.902,95.438,540.735,538.799,0.0
52107.0,STARLINK-3658,PAYLOAD,2023-04-29 05:24:48,15.08833955,0.0001082,53.2166,92.3904,91.4183,268.6934,-2.7492e-05,-7.25e-06,0.0,0 STARLINK-3658,1 52107U 22029V   23119.22556038 -.00000725  00000-0 -27492-4 0  9991,2 52107  53.2166  92.3904 0001082  91.4183 268.6934 15.08833955 62951,6917.899,95.438,540.512,539.015,0.0
52107.0,STARLINK-3658,PAYLOAD,2023-04-30 08:26:21,15.08843563,0.0001206,53.2179,87.336,104.6928,255.4198,-4.9598e-06,-3.67e-06,0.0,0 STARLINK-3658,1 52107U 22029V   23120.35163606 -.00000367  00000-0 -49598-5 0  9996,2 52107  53.2179  87.3360 0001206 104.6928 255.4198 15.08843563 63129,6917.869,95.437,540.569,538.9,0.0
52107.0,STARLINK-3658,PAYLOAD,2023-05-01 05:06:22,15.08836126,0.0001105,53.2177,83.47,103.3852,256.7263,8.0156e-05,9.88e-06,0.0,0 STARLINK-3658,1 52107U 22029V   23121.21276075  .00000988  00000-0  80156-4 0  9998,2 52107  53.2177  83.4700 0001105 103.3852 256.7263 15.08836126 63250,6917.892,95.438,540.522,538.993,0.0
52107.0,STARLINK-3658,PAYLOAD,2023-05-02 06:32:32,15.08847045,0.0001254,53.2183,78.7084,84.024,276.0895,9.3979e-05,1.208e-05,0.0,0 STARLINK-3658,1 52107U 22029V   23122.27259497  .00001208  00000-0  93979-4 0  9997,2 52107  53.2183  78.7084 0001254  84.0240 276.0895 15.08847045 63416,6917.859,95.437,540.591,538.856,0.0
52107.0,STARLINK-3658,PAYLOAD,2023-05-02 20:51:00,15.08838257,0.0001566,53.2161,76.0322,138.1057,222.0055,3.3617e-05,2.47e-06,0.0,0 STARLINK-3658,1 52107U 22029V   23122.86875842  .00000247  00000-0  33617-4 0  9995,2 52107  53.2161  76.0322 0001566 138.1057 222.0055 15.08838257 63505,6917.886,95.438,540.834,538.667,0.0
52107.0,STARLINK-3658,PAYLOAD,2023-05-03 03:12:33,15.08840815,0.0001093,53.2164,74.8441,102.8108,257.3007,9.1972e-06,-1.41e-06,0.0,0 STARLINK-3658,1 52107U 22029V   23123.13372006 -.00000141  00000-0  91972-5 0  9993,2 52107  53.2164  74.8441 0001093 102.8108 257.3007 15.08840815 63541,6917.878,95.438,540.499,538.987,0.0
52107.0,STARLINK-3658,PAYLOAD,2023-05-04 06:14:06,15.08848131,0.0001187,53.2173,69.7884,117.3535,242.7578,4.3144e-06,-2.19e-06,0.0,0 STARLINK-3658,1 52107U 22029V   23124.25979383 -.00000219  00000-0  43144-5 0  9992,2 52107  53.2173  69.7884 0001187 117.3535 242.7578 15.08848131 63713,6917.856,95.437,540.542,538.899,0.0
52107.0,STARLINK-3658,PAYLOAD,2023-05-04 20:32:35,15.08835992,0.0001156,53.2171,67.1112,100.1573,259.9549,-1.5645e-06,-3.13e-06,0.0,0 STARLINK-3658,1 52107U 22029V   23124.85596296 -.00000313  00000-0 -15645-5 0  9997,2 52107  53.2171  67.1112 0001156 100.1573 259.9549 15.08835992 63804,6917.893,95.438,540.557,538.958,0.0
52107.0,STARLINK-3658,PAYLOAD,2023-05-05 04:29:30,15.08844372,0.0001072,53.2176,65.6242,98.7168,261.3946,5.529e-05,5.92e-06,0.0,0 STARLINK-3658,1 52107U 22029V   23125.18715598  .00000592  00000-0  55290-4 0  9998,2 52107  53.2176  65.6242 0001072  98.7168 261.3946 15.08844372 63850,6917.867,95.437,540.474,538.99,0.0
52107.0,STARLINK-3658,PAYLOAD,2023-05-05 06:04:53,15.08843368,0.0001008,53.2176,65.3287,100.2199,259.8906,6.8567e-05,8.04e-06,0.0,0 STARLINK-3658,1 52107U 22029V   23125.25339623  .00000804  00000-0  68567-4 0  9994,2 52107  53.2176  65.3287 0001008 100.2199 259.8906 15.08843368 63861,6917.87,95.437,540.432,539.038,0.0
52107.0,STARLINK-3658,PAYLOAD,2023-05-06 02:44:55,15.08831055,9.21e-05,53.2167,61.4661,113.1357,246.9732,2.7429e-05,1.49e-06,0.0,0 STARLINK-3658,1 52107U 22029V   23126.11452776  .00000149  00000-0  27429-4 0  9999,2 52107  53.2167  61.4661 0000921 113.1357 246.9732 15.08831055 63994,6917.908,95.438,540.41,539.136,0.0
52107.0,STARLINK-3658,PAYLOAD,2023-05-06 05:55:41,15.08835999,9.31e-05,53.217,60.8687,102.0479,258.0617,5.6478e-05,6.11e-06,0.0,0 STARLINK-3658,1 52107U 22029V   23126.24700491  .00000611  00000-0  56478-4 0  9993,2 52107  53.2170  60.8687 0000931 102.0479 258.0617 15.08835999 64013,6917.893,95.438,540.402,539.114,0.0
52107.0,STARLINK-3658,PAYLOAD,2023-05-07 02:35:40,15.08854295,8.64e-05,53.2173,57.0031,102.8414,257.2674,0.00018084,2.593e-05,0.0,0 STARLINK-3658,1 52107U 22029V   23127.10811067  .00002593  00000-0  18084-3 0  9992,2 52107  53.2173  57.0031 0000864 102.8414 257.2674 15.08854295 64147,6917.837,95.437,540.299,539.104,0.0
52107.0,STARLINK-3658,PAYLOAD,2023-05-07 04:11:03,15.08856807,8.69e-05,53.2173,56.7058,103.5248,256.584,0.00018869,2.718e-05,0.0,0 STARLINK-3658,1 52107U 22029V   23127.17434917  .00002718  00000-0  18869-3 0  9994,2 52107  53.2173  56.7058 0000869 103.5248 256.5840 15.08856807 64159,6917.829,95.436,540.295,539.093,0.0
52107.0,STARLINK-3658,PAYLOAD,2023-05-08 02:26:29,15.08830617,9.92e-05,53.2167,52.5432,100.8353,259.2751,-4.4307e-05,-9.93e-06,0.0,0 STARLINK-3658,1 52107U 22029V   23128.10173226 -.00000993  00000-0 -44307-4 0  9993,2 52107  53.2167  52.5432 0000992 100.8353 259.2751 15.08830617 64293,6917.909,95.438,540.46,539.088,0.0
52107.0,STARLINK-3658,PAYLOAD,2023-05-08 21:31:06,15.08852827,0.0001121,53.2173,48.9746,90.2157,269.8964,0.00018516,2.661e-05,0.0,0 STARLINK-3658,1 52107U 22029V   23128.89660449  .00002661  00000-0  18516-3 0  9991,2 52107  53.2173  48.9746 0001121  90.2157 269.8964 15.08852827 64410,6917.841,95.437,540.482,538.931,0.0
